{
    "CCSDS_OMM_VERS": "3.0",
    "COMMENT": "GENERATED VIA SPACE-TRACK.ORG API",
    "CREATION_DATE": "2025-11-23T23:06:32",
    "ORIGINATOR": "18 SPCS",
    "OBJECT_NAME": "BEIDOU 3M7",
    "OBJECT_ID": "2018-029A",
    "CENTER_NAME": "EARTH",
    "REF_FRAME": "TEME",
    "TIME_SYSTEM": "UTC",
    "MEAN_ELEMENT_THEORY": "SGP4",
    "EPOCH": "2025-11-23T07:01:54.096672",
    "MEAN_MOTION": "1.86228366",
    "ECCENTRICITY": "0.00018720",
    "INCLINATION": "54.3840",
    "RA_OF_ASC_NODE": "307.1467",
    "ARG_OF_PERICENTER": "270.0995",
    "MEAN_ANOMALY": "89.8712",
    "EPHEMERIS_TYPE": "0",
    "CLASSIFICATION_TYPE": "U",
    "NORAD_CAT_ID": "43245",
    "ELEMENT_SET_NO": "999",
    "REV_AT_EPOCH": "5206",
    "BSTAR": "0.00000000000000",
    "MEAN_MOTION_DOT": "-0.00000052",
    "MEAN_MOTION_DDOT": "0.0000000000000",
    "SEMIMAJOR_AXIS": "27906.452",
    "PERIOD": "773.244",
    "APOAPSIS": "21533.541",
    "PERIAPSIS": "21523.093",
    "OBJECT_TYPE": "PAYLOAD",
    "RCS_SIZE": "LARGE",
    "COUNTRY_CODE": "PRC",
    "LAUNCH_DATE": "2018-03-29",
    "SITE": "XSC",
    "DECAY_DATE": null,
    "FILE": "4896377",
    "GP_ID": "303352574",
    "TLE_LINE0": "0 BEIDOU 3M7",
    "TLE_LINE1": "1 43245U 18029A   25327.29298723 -.00000052  00000-0  00000+0 0  9996",
    "TLE_LINE2": "2 43245  54.3840 307.1467 0001872 270.0995  89.8712  1.86228366 52062"
}